TEVEL2-2                
1 63219U 25052K   26068.64848259  .00020339  00000+0  69428-3 0  9991
2 63219  97.3987 324.7700 0004693 105.7930 254.3828 15.30343745 54855
STARLINK-35752          
1 66275U 25247L   26068.63367614  .00036408  00000+0  12356-2 0  9993
2 66275  53.1577 191.8054 0001290  62.6386 297.4746 15.30193397 21022
